{
  "type": "FeatureCollection",
  "features": [
    {
      "type": "Feature",
      "properties": {
        "norad_id": 33376,
        "name": "GALAXY 19 (G-19)",
        "group": "intelsat",
        "lat": -0.017664671344158313,
        "lon": -43.32334680329654,
        "alt_km": 35777.54425335228,
        "timestamp": "2025-12-03T22:42:32.324421+00:00",
        "meta_object_name": "GALAXY 19 (G-19)",
        "meta_object_id": "2008-045A",
        "meta_epoch": "2025-12-03T09:52:13.049760",
        "meta_mean_motion": 1.00270834,
        "meta_eccentricity": 0.000344,
        "meta_inclination": 0.0171,
        "meta_ra_of_asc_node": 19.6363,
        "meta_arg_of_pericenter": 244.4356,
        "meta_mean_anomaly": 219.4911,
        "meta_ephemeris_type": 0,
        "meta_classification_type": "U",
        "meta_norad_cat_id": 33376,
        "meta_element_set_no": 999,
        "meta_rev_at_epoch": 6294,
        "meta_bstar": 0,
        "meta_mean_motion_dot": -1.21e-06,
        "meta_mean_motion_ddot": 0,
        "tle_line1": "1 33376U 08045A   25337.41126215 -.00000121  00000+0  00000+0 0  9994",
        "tle_line2": "2 33376   0.0171  19.6363 0003440 244.4356 219.4911  1.00270834 62943"
      },
      "geometry": {
        "type": "Point",
        "coordinates": [
          -43.32334680329654,
          -0.017664671344158313
        ]
      }
    },
    {
      "type": "Feature",
      "properties": {
        "norad_id": 35493,
        "name": "FM-5",
        "group": "intelsat",
        "lat": 0.02147931375611952,
        "lon": -32.49790396638337,
        "alt_km": 35791.35753451946,
        "timestamp": "2025-12-03T22:42:32.324442+00:00",
        "meta_object_name": "FM-5",
        "meta_object_id": "2009-034A",
        "meta_epoch": "2025-12-03T09:55:20.250912",
        "meta_mean_motion": 1.00269598,
        "meta_eccentricity": 0.0001147,
        "meta_inclination": 0.0227,
        "meta_ra_of_asc_node": 284.8547,
        "meta_arg_of_pericenter": 238.3665,
        "meta_mean_anomaly": 331.9799,
        "meta_ephemeris_type": 0,
        "meta_classification_type": "U",
        "meta_norad_cat_id": 35493,
        "meta_element_set_no": 999,
        "meta_rev_at_epoch": 4468,
        "meta_bstar": 0,
        "meta_mean_motion_dot": -1.82e-06,
        "meta_mean_motion_ddot": 0,
        "tle_line1": "1 35493U 09034A   25337.41342883 -.00000182  00000+0  00000+0 0  9993",
        "tle_line2": "2 35493   0.0227 284.8547 0001147 238.3665 331.9799  1.00269598 44684"
      },
      "geometry": {
        "type": "Point",
        "coordinates": [
          -32.49790396638337,
          0.02147931375611952
        ]
      }
    },
    {
      "type": "Feature",
      "properties": {
        "norad_id": 36097,
        "name": "INTELSAT 14 (IS-14)",
        "group": "intelsat",
        "lat": 0.03440670589005638,
        "lon": 8.671946390863921,
        "alt_km": 35790.85495731321,
        "timestamp": "2025-12-03T22:42:32.324452+00:00",
        "meta_object_name": "INTELSAT 14 (IS-14)",
        "meta_object_id": "2009-064A",
        "meta_epoch": "2025-12-03T08:24:21.466944",
        "meta_mean_motion": 1.00271378,
        "meta_eccentricity": 0.0002644,
        "meta_inclination": 0.016,
        "meta_ra_of_asc_node": 304.2441,
        "meta_arg_of_pericenter": 310.2273,
        "meta_mean_anomaly": 259.0649,
        "meta_ephemeris_type": 0,
        "meta_classification_type": "U",
        "meta_norad_cat_id": 36097,
        "meta_element_set_no": 999,
        "meta_rev_at_epoch": 5864,
        "meta_bstar": 0,
        "meta_mean_motion_dot": -2.55e-06,
        "meta_mean_motion_ddot": 0,
        "tle_line1": "1 36097U 09064A   25337.35024846 -.00000255  00000+0  00000+0 0  9997",
        "tle_line2": "2 36097   0.0160 304.2441 0002644 310.2273 259.0649  1.00271378 58643"
      },
      "geometry": {
        "type": "Point",
        "coordinates": [
          8.671946390863921,
          0.03440670589005638
        ]
      }
    },
    {
      "type": "Feature",
      "properties": {
        "norad_id": 36106,
        "name": "INTELSAT 15 (IS-15)",
        "group": "intelsat",
        "lat": 0.00399160519836814,
        "lon": 138.77327708057302,
        "alt_km": 35790.87794793164,
        "timestamp": "2025-12-03T22:42:32.324463+00:00",
        "meta_object_name": "INTELSAT 15 (IS-15)",
        "meta_object_id": "2009-067A",
        "meta_epoch": "2025-12-03T10:44:08.078208",
        "meta_mean_motion": 1.00270332,
        "meta_eccentricity": 0.0002442,
        "meta_inclination": 0.0146,
        "meta_ra_of_asc_node": 328.0009,
        "meta_arg_of_pericenter": 285.7231,
        "meta_mean_anomaly": 65.0084,
        "meta_ephemeris_type": 0,
        "meta_classification_type": "U",
        "meta_norad_cat_id": 36106,
        "meta_element_set_no": 999,
        "meta_rev_at_epoch": 3926,
        "meta_bstar": 0,
        "meta_mean_motion_dot": -1.67e-06,
        "meta_mean_motion_ddot": 0,
        "tle_line1": "1 36106U 09067A   25337.44731572 -.00000167  00000+0  00000+0 0  9994",
        "tle_line2": "2 36106   0.0146 328.0009 0002442 285.7231  65.0084  1.00270332 39262"
      },
      "geometry": {
        "type": "Point",
        "coordinates": [
          138.77327708057302,
          0.00399160519836814
        ]
      }
    },
    {
      "type": "Feature",
      "properties": {
        "norad_id": 36131,
        "name": "DIRECTV 12",
        "group": "intelsat",
        "lat": 2.884141401769206e-05,
        "lon": -49.07691644957877,
        "alt_km": 35786.598688536134,
        "timestamp": "2025-12-03T22:42:32.324475+00:00",
        "meta_object_name": "DIRECTV 12",
        "meta_object_id": "2009-075A",
        "meta_epoch": "2025-12-03T09:50:35.706336",
        "meta_mean_motion": 1.00270402,
        "meta_eccentricity": 7e-06,
        "meta_inclination": 0.0134,
        "meta_ra_of_asc_node": 83.6727,
        "meta_arg_of_pericenter": 112.5896,
        "meta_mean_anomaly": 281.172,
        "meta_ephemeris_type": 0,
        "meta_classification_type": "U",
        "meta_norad_cat_id": 36131,
        "meta_element_set_no": 999,
        "meta_rev_at_epoch": 4459,
        "meta_bstar": 0,
        "meta_mean_motion_dot": -8.5e-07,
        "meta_mean_motion_ddot": 0,
        "tle_line1": "1 36131U 09075A   25337.41013549 -.00000085  00000+0  00000+0 0  9994",
        "tle_line2": "2 36131   0.0134  83.6727 0000070 112.5896 281.1720  1.00270402 44595"
      },
      "geometry": {
        "type": "Point",
        "coordinates": [
          -49.07691644957877,
          2.884141401769206e-05
        ]
      }
    },
    {
      "type": "Feature",
      "properties": {
        "norad_id": 36397,
        "name": "INTELSAT 16 (IS-16)",
        "group": "intelsat",
        "lat": 0.013957690194568025,
        "lon": -22.53595639994544,
        "alt_km": 35785.249004627854,
        "timestamp": "2025-12-03T22:42:32.324486+00:00",
        "meta_object_name": "INTELSAT 16 (IS-16)",
        "meta_object_id": "2010-006A",
        "meta_epoch": "2025-12-03T09:58:04.988064",
        "meta_mean_motion": 1.00269955,
        "meta_eccentricity": 0.0002378,
        "meta_inclination": 0.0121,
        "meta_ra_of_asc_node": 313.059,
        "meta_arg_of_pericenter": 302.3904,
        "meta_mean_anomaly": 250.3777,
        "meta_ephemeris_type": 0,
        "meta_classification_type": "U",
        "meta_norad_cat_id": 36397,
        "meta_element_set_no": 999,
        "meta_rev_at_epoch": 5769,
        "meta_bstar": 0,
        "meta_mean_motion_dot": -2.26e-06,
        "meta_mean_motion_ddot": 0,
        "tle_line1": "1 36397U 10006A   25337.41533551 -.00000226  00000+0  00000+0 0  9991",
        "tle_line2": "2 36397   0.0121 313.0590 0002378 302.3904 250.3777  1.00269955 57691"
      },
      "geometry": {
        "type": "Point",
        "coordinates": [
          -22.53595639994544,
          0.013957690194568025
        ]
      }
    },
    {
      "type": "Feature",
      "properties": {
        "norad_id": 37185,
        "name": "XM-5",
        "group": "intelsat",
        "lat": 0.020107142941242752,
        "lon": -61.535573284847594,
        "alt_km": 35791.90322182325,
        "timestamp": "2025-12-03T22:42:32.324497+00:00",
        "meta_object_name": "XM-5",
        "meta_object_id": "2010-053A",
        "meta_epoch": "2025-12-02T10:37:38.767584",
        "meta_mean_motion": 1.00270481,
        "meta_eccentricity": 0.0001582,
        "meta_inclination": 0.0649,
        "meta_ra_of_asc_node": 272.7549,
        "meta_arg_of_pericenter": 239.5567,
        "meta_mean_anomaly": 323.4678,
        "meta_ephemeris_type": 0,
        "meta_classification_type": "U",
        "meta_norad_cat_id": 37185,
        "meta_element_set_no": 999,
        "meta_rev_at_epoch": 5551,
        "meta_bstar": 0,
        "meta_mean_motion_dot": -2e-08,
        "meta_mean_motion_ddot": 0,
        "tle_line1": "1 37185U 10053A   25336.44280981 -.00000002  00000+0  00000+0 0  9999",
        "tle_line2": "2 37185   0.0649 272.7549 0001582 239.5567 323.4678  1.00270481 55516"
      },
      "geometry": {
        "type": "Point",
        "coordinates": [
          -61.535573284847594,
          0.020107142941242752
        ]
      }
    }
  ]
}